NORAD_CAT_ID,OBJECT_NAME,OBJECT_TYPE,EPOCH,MEAN_MOTION,ECCENTRICITY,INCLINATION,RA_OF_ASC_NODE,ARG_OF_PERICENTER,MEAN_ANOMALY,BSTAR,MEAN_MOTION_DOT,MEAN_MOTION_DDOT,TLE_LINE0,TLE_LINE1,TLE_LINE2,SEMIMAJOR_AXIS,PERIOD,APOGEE,PERIGEE,DECAYED
53427.0,STARLINK-4541,PAYLOAD,2023-09-25 23:07:28,15.08866568,0.0001361,53.2165,175.1883,92.818,267.2968,0.00081446,0.00012707,0.0,0 STARLINK-4541,1 53427U 22097AR  23268.96352883  .00012707  00000-0  81446-3 0  9999,2 53427  53.2165 175.1883 0001361  92.8180 267.2968 15.08866568 62941,6917.799,95.436,540.606,538.723,0.0
53427.0,STARLINK-4541,PAYLOAD,2023-09-26 18:12:06,15.08839297,0.0001233,53.2165,171.6198,101.4966,258.6165,0.00011207,1.496e-05,0.0,0 STARLINK-4541,1 53427U 22097AR  23269.75841383  .00001496  00000-0  11207-3 0  9996,2 53427  53.2165 171.6198 0001233 101.4966 258.6165 15.08839297 63064,6917.883,95.438,540.601,538.895,0.0
53427.0,STARLINK-4541,PAYLOAD,2023-09-26 21:22:53,15.08822796,0.0001272,53.2167,171.0248,72.257,287.8561,-0.00033601,-5.629e-05,0.0,0 STARLINK-4541,1 53427U 22097AR  23269.89089618 -.00005629  00000-0 -33601-3 0  9992,2 53427  53.2167 171.0248 0001272  72.2570 287.8561 15.08822796 63560,6917.933,95.439,540.678,538.918,0.0
53427.0,STARLINK-4541,PAYLOAD,2023-09-27 03:44:26,15.08829063,0.0001307,53.2166,169.8364,79.9021,280.2118,-6.9375e-05,-1.391e-05,0.0,0 STARLINK-4541,1 53427U 22097AR  23270.15585991 -.00001391  00000-0 -69375-4 0  9998,2 53427  53.2166 169.8364 0001307  79.9021 280.2118 15.08829063 63128,6917.914,95.438,540.683,538.875,0.0
53427.0,STARLINK-4541,PAYLOAD,2023-09-27 10:05:59,15.08822451,0.0001437,53.2167,168.6463,76.6912,283.424,-3.9574e-05,-9.17e-06,0.0,0 STARLINK-4541,1 53427U 22097AR  23270.42082448 -.00000917  00000-0 -39574-4 0  9998,2 53427  53.2167 168.6463 0001437  76.6912 283.4240 15.08822451 63645,6917.934,95.439,540.793,538.805,0.0
53427.0,STARLINK-4541,PAYLOAD,2023-09-27 22:49:05,15.08821058,0.0001517,53.2168,166.2677,81.2917,278.8247,-4.1006e-05,-9.4e-06,0.0,0 STARLINK-4541,1 53427U 22097AR  23270.95075260 -.00000940  00000-0 -41006-4 0  9999,2 53427  53.2168 166.2677 0001517  81.2917 278.8247 15.08821058 63246,6917.938,95.439,540.853,538.754,0.0
53427.0,STARLINK-4541,PAYLOAD,2023-09-28 16:18:19,15.08833185,0.0001585,53.2169,162.9967,79.6316,280.4855,0.00037701,5.716e-05,0.0,0 STARLINK-4541,1 53427U 22097AR  23271.67939705  .00005716  00000-0  37701-3 0  9992,2 53427  53.2169 162.9967 0001585  79.6316 280.4855 15.08833185 63351,6917.901,95.438,540.863,538.67,0.0
53427.0,STARLINK-4541,PAYLOAD,2023-09-28 21:04:28,15.08846321,0.0001496,53.2163,162.1066,76.7581,283.3578,0.00056711,8.751e-05,0.0,0 STARLINK-4541,1 53427U 22097AR  23271.87811246  .00008751  00000-0  56711-3 0  9997,2 53427  53.2163 162.1066 0001496  76.7581 283.3578 15.08846321 63866,6917.861,95.437,540.761,538.691,0.0
53427.0,STARLINK-4541,PAYLOAD,2023-09-30 00:06:01,15.08865419,0.0001299,53.2149,157.0546,82.389,277.725,0.00052251,8.043e-05,0.0,0 STARLINK-4541,1 53427U 22097AR  23273.00418032  .00008043  00000-0  52251-3 0  9999,2 53427  53.2149 157.0546 0001299  82.3890 277.7250 15.08865419 63552,6917.803,95.436,540.566,538.769,0.0
53427.0,STARLINK-4541,PAYLOAD,2023-09-30 09:38:20,15.08848131,0.0001814,53.2149,155.2714,63.7168,296.4011,2.3506e-05,8.6e-07,0.0,0 STARLINK-4541,1 53427U 22097AR  23273.40162451  .00000086  00000-0  23506-4 0  9995,2 53427  53.2149 155.2714 0001814  63.7168 296.4011 15.08848131 63615,6917.856,95.437,540.975,538.466,0.0
53427.0,STARLINK-4541,PAYLOAD,2023-10-01 01:32:11,15.08835705,0.0001482,53.215,152.2902,95.8309,264.2852,0.00027276,4.055e-05,0.0,0 STARLINK-4541,1 53427U 22097AR  23274.06402667  .00004055  00000-0  27276-3 0  9991,2 53427  53.2150 152.2902 0001482  95.8309 264.2852 15.08835705 63717,6917.894,95.438,540.784,538.733,0.0
53427.0,STARLINK-4541,PAYLOAD,2023-10-01 09:29:07,15.08848665,0.0001244,53.2158,150.8033,94.6225,265.4909,0.00058994,9.116e-05,0.0,0 STARLINK-4541,1 53427U 22097AR  23274.39522540  .00009116  00000-0  58994-3 0  9994,2 53427  53.2158 150.8033 0001244  94.6225 265.4909 15.08848665 64248,6917.854,95.437,540.579,538.858,0.0
53427.0,STARLINK-4541,PAYLOAD,2023-10-01 22:12:12,15.08858572,0.0001247,53.216,148.4242,93.8433,266.2701,0.00093215,0.00014586,0.0,0 STARLINK-4541,1 53427U 22097AR  23274.92514356  .00014586  00000-0  93215-3 0  9991,2 53427  53.2160 148.4242 0001247  93.8433 266.2701 15.08858572 64327,6917.824,95.436,540.551,538.826,0.0
53427.0,STARLINK-4541,PAYLOAD,2023-10-02 01:22:58,15.08866841,0.0001308,53.2156,147.8301,89.3666,270.7476,0.0010827,0.00016998,0.0,0 STARLINK-4541,1 53427U 22097AR  23275.05762099  .00016998  00000-0  10827-2 0  9991,2 53427  53.2156 147.8301 0001308  89.3666 270.7476 15.08866841 63862,6917.798,95.436,540.568,538.758,0.0
53427.0,STARLINK-4541,PAYLOAD,2023-10-02 06:09:07,15.08857151,0.0001461,53.2158,146.9439,60.987,299.1269,0.00036418,5.515e-05,0.0,0 STARLINK-4541,1 53427U 22097AR  23275.25634072  .00005515  00000-0  36418-3 0  9990,2 53427  53.2158 146.9439 0001461  60.9870 299.1269 15.08857151 63890,6917.828,95.436,540.704,538.682,0.0
53427.0,STARLINK-4541,PAYLOAD,2023-10-02 20:27:36,15.08843915,0.0001385,53.2154,144.2631,81.3181,278.7968,0.00029681,4.439e-05,0.0,0 STARLINK-4541,1 53427U 22097AR  23275.85250486  .00004439  00000-0  29681-3 0  9997,2 53427  53.2154 144.2631 0001385  81.3181 278.7968 15.08843915 63980,6917.868,95.437,540.692,538.775,0.0
53427.0,STARLINK-4541,PAYLOAD,2023-10-03 01:13:45,15.08845408,0.0001405,53.2154,143.37,93.9253,266.19,0.00048475,7.436e-05,0.0,0 STARLINK-4541,1 53427U 22097AR  23276.05122435  .00007436  00000-0  48475-3 0  9994,2 53427  53.2154 143.3700 0001405  93.9253 266.1900 15.08845408 64492,6917.864,95.437,540.701,538.757,0.0
53427.0,STARLINK-4541,PAYLOAD,2023-10-03 20:18:23,15.08850402,0.0001271,53.2151,139.8033,92.4123,267.7015,0.0010399,0.00016305,0.0,0 STARLINK-4541,1 53427U 22097AR  23276.84611012  .00016305  00000-0  10399-2 0  9993,2 53427  53.2151 139.8033 0001271  92.4123 267.7015 15.08850402 64134,6917.849,95.437,540.593,538.834,0.0
53427.0,STARLINK-4541,PAYLOAD,2023-10-04 07:26:05,15.088483,0.0001262,53.2148,137.7221,86.855,273.2586,0.00069021,0.00010716,0.0,0 STARLINK-4541,1 53427U 22097AR  23277.30978982  .00010716  00000-0  69021-3 0  9994,2 53427  53.2148 137.7221 0001262  86.8550 273.2586 15.08848300 64204,6917.855,95.437,540.593,538.847,0.0
53427.0,STARLINK-4541,PAYLOAD,2023-10-04 21:44:33,15.08860875,0.0001252,53.2146,135.0465,95.2232,264.8903,0.0007114,0.00011059,0.0,0 STARLINK-4541,1 53427U 22097AR  23277.90594341  .00011059  00000-0  71140-3 0  9999,2 53427  53.2146 135.0465 0001252  95.2232 264.8903 15.08860875 64775,6917.817,95.436,540.548,538.815,0.0
53427.0,STARLINK-4541,PAYLOAD,2023-10-05 07:16:52,15.08856787,0.0001149,53.2152,133.2572,78.0918,282.0203,0.00067248,0.00010436,0.0,0 STARLINK-4541,1 53427U 22097AR  23278.30338065  .00010436  00000-0  67248-3 0  9995,2 53427  53.2152 133.2572 0001149  78.0918 282.0203 15.08856787 64352,6917.829,95.436,540.489,538.899,0.0
53427.0,STARLINK-4541,PAYLOAD,2023-10-05 21:35:20,15.08839087,0.000135,53.2145,130.5861,89.8606,270.2541,7.8751e-05,9.66e-06,0.0,0 STARLINK-4541,1 53427U 22097AR  23278.89954553  .00000966  00000-0  78751-4 0  9994,2 53427  53.2145 130.5861 0001350  89.8606 270.2541 15.08839087 64441,6917.883,95.438,540.682,538.814,0.0
53427.0,STARLINK-4541,PAYLOAD,2023-10-06 07:07:39,15.08830955,0.0001426,53.2154,128.8013,93.3134,266.8021,0.00017264,2.46e-05,0.0,0 STARLINK-4541,1 53427U 22097AR  23279.29698958  .00002460  00000-0  17264-3 0  9995,2 53427  53.2154 128.8013 0001426  93.3134 266.8021 15.08830955 64506,6917.908,95.438,540.76,538.787,0.0
53427.0,STARLINK-4541,PAYLOAD,2023-10-06 21:26:08,15.08838899,0.0001417,53.2146,126.1253,91.0316,269.0838,0.00045304,6.929e-05,0.0,0 STARLINK-4541,1 53427U 22097AR  23279.89315315  .00006929  00000-0  45304-3 0  9994,2 53427  53.2146 126.1253 0001417  91.0316 269.0838 15.08838899 65070,6917.884,95.438,540.729,538.768,0.0
53427.0,STARLINK-4541,PAYLOAD,2023-10-06 23:01:31,15.08842326,0.0001416,53.2146,125.8279,91.9855,268.1299,0.00057605,8.892e-05,0.0,0 STARLINK-4541,1 53427U 22097AR  23279.95939270  .00008892  00000-0  57605-3 0  9991,2 53427  53.2146 125.8279 0001416  91.9855 268.1299 15.08842326 64609,6917.873,95.437,540.718,538.759,0.0
53427.0,STARLINK-4541,PAYLOAD,2023-10-07 21:16:55,15.08845774,0.0001389,53.2149,121.6635,91.154,268.9612,0.00050331,7.733e-05,0.0,0 STARLINK-4541,1 53427U 22097AR  23280.88675490  .00007733  00000-0  50331-3 0  9998,2 53427  53.2149 121.6635 0001389  91.1540 268.9612 15.08845774 64746,6917.863,95.437,540.689,538.767,0.0
53427.0,STARLINK-4541,PAYLOAD,2023-10-08 13:10:46,15.0884802,0.0001359,53.2141,118.6926,80.3838,279.7308,0.00040164,6.111e-05,0.0,0 STARLINK-4541,1 53427U 22097AR  23281.54915466  .00006111  00000-0  40164-3 0  9994,2 53427  53.2141 118.6926 0001359  80.3838 279.7308 15.08848020 65328,6917.856,95.437,540.661,538.781,0.0
53427.0,STARLINK-4541,PAYLOAD,2023-10-08 19:32:19,15.08853044,0.0001358,53.2146,117.5015,86.6586,273.4561,0.00049903,7.666e-05,0.0,0 STARLINK-4541,1 53427U 22097AR  23281.81411247  .00007666  00000-0  49903-3 0  9998,2 53427  53.2146 117.5015 0001358  86.6586 273.4561 15.08853044 64882,6917.841,95.437,540.645,538.766,0.0
53427.0,STARLINK-4541,PAYLOAD,2023-10-09 06:40:01,15.08847338,0.0001425,53.2156,115.4167,92.9327,267.1828,0.00028752,4.292e-05,0.0,0 STARLINK-4541,1 53427U 22097AR  23282.27779219  .00004292  00000-0  28752-3 0  9996,2 53427  53.2156 115.4167 0001425  92.9327 267.1828 15.08847338 64959,6917.858,95.437,540.709,538.737,0.0
53427.0,STARLINK-4541,PAYLOAD,2023-10-09 13:01:34,15.08836245,0.0002435,53.2146,114.231,80.0062,280.1205,3.537e-05,2.75e-06,0.0,0 STARLINK-4541,1 53427U 22097AR  23282.54276018  .00000275  00000-0  35370-4 0  9997,2 53427  53.2146 114.2310 0002435  80.0062 280.1205 15.08836245 65478,6917.892,95.438,541.441,538.072,0.0
